ATLAS 2AS CENTAUR R/B   
1 24937U 97050B   26114.09003201  .00000765  00000+0  66396-3 0  9995
2 24937  19.2377 331.2800 7282618 289.8171   9.4100  2.25043375213835
TITAN 3C TRANSTAGE DEB  
1 25000U 68081G   26116.74837028  .00000045  00000+0  00000+0 0  9992
2 25000   1.8089  42.7832 0114077 289.5095 356.0754  1.01031980124795
TITAN 3C TRANSTAGE DEB  
1 25001U 68081H   26116.94918101 -.00000063  00000+0  00000+0 0  9998
2 25001   1.9275  51.9064 0072662 353.0721 290.5222  1.01691300117791
USA 134                 
1 25019U 97065A   26116.59026112 -.00000072  00000+0  00000+0 0  9994
2 25019  12.7250  22.1107 0006081 324.7858 327.8660  1.00276282 32433
IABS R/B                
1 25021U 97065C   26116.38933266  .00000075  00000+0  00000+0 0  9993
2 25021  14.1859 352.5280 0044535 206.0181 347.8474  1.01049613105978
KUPON                   
1 25045U 97070A   26116.13441719 -.00000279  00000+0  00000+0 0  9992
2 25045  14.5561 355.0315 0005106 313.5924  46.3242  1.00271289104120
SL-12 R/B(2)            
1 25048U 97070D   26116.85254992 -.00000079  00000+0  00000+0 0  9997
2 25048  14.7416 354.6450 0013992 163.0171  14.1656  0.99640889103510
INDOSTAR 1              
1 25050U 97071B   26116.94988491  .00000121  00000+0  00000+0 0  9996
2 25050  12.8985  20.4221 0003855 317.4412 251.2244  1.00293638104288
EQUATOR S               
1 25068U 97075B   26116.22823028 -.00000411  00000+0  28681-2 0  9995
2 25068   4.7598 257.1265 8265672 336.2199   0.9467  1.07777251111908
SL-12 R/B(2)            
1 25074U 97076D   26116.59269954 -.00000167  00000+0  00000+0 0  9995
2 25074  13.8824  19.2785 4367838  40.4127 106.9965  1.71947476178317
GALAXY 8 (G-8)          
1 25086U 97078A   26115.99111983 -.00000249  00000+0  00000+0 0  9992
2 25086  14.0163  10.2859 0008171  36.2121 145.0353  0.99706747103425
INTELSAT 804 (IS-804)   
1 25110U 97083A   26116.52683757 -.00000089  00000+0  00000+0 0  9991
2 25110  13.1006  18.0153 0009932  20.3604 171.7729  1.00264545103812
HGS 1 (ASIASAT 3)       
1 25126U 97086A   26116.11503120 -.00000267  00000+0  00000+0 0  9999
2 25126  13.0859  32.2545 0050643  44.6028 142.1149  1.00292930104617
DELTA 2 R/B(2)          
1 25136U 98002C   26115.12149470 -.00000147  00000+0  00000+0 0  9990
2 25136  23.1517 119.1020 6969679 262.5494 190.1990  2.19861851227243
ATLAS 2A R/B            
1 25149U 98005B   26112.45071909  .00000889  00000+0  00000+0 0  9993
2 25149  62.1168 184.1918 6782643 280.8109  14.9883  2.06883437 50833
INMARSAT 3-F5           
1 25153U 98006B   26116.23169718 -.00000299  00000+0  00000+0 0  9991
2 25153   9.5805  53.7675 0004996 340.0489 209.8470  1.00272006103376
UFO 8 (USA 138)         
1 25258U 98016A   26116.59521288 -.00000198  00000+0  00000+0 0  9999
2 25258  11.0709  23.0782 0006031 277.6737 281.1473  1.00277858103348
