[{"OBJECT_NAME":"ATLAS 2AS CENTAUR R/B","OBJECT_ID":"1997-050B","EPOCH":"2026-04-24T02:09:38.765664","MEAN_MOTION":2.25043375,"ECCENTRICITY":0.72826186,"INCLINATION":19.2377,"RA_OF_ASC_NODE":331.28,"ARG_OF_PERICENTER":289.8171,"MEAN_ANOMALY":9.41,"EPHEMERIS_TYPE":0,"CLASSIFICATION_TYPE":"U","NORAD_CAT_ID":24937,"ELEMENT_SET_NO":999,"REV_AT_EPOCH":21383,"BSTAR":0.00066395752,"MEAN_MOTION_DOT":7.65e-6,"MEAN_MOTION_DDOT":0},{"OBJECT_NAME":"TITAN 3C TRANSTAGE DEB","OBJECT_ID":"1968-081G","EPOCH":"2026-04-26T17:57:39.192192","MEAN_MOTION":1.0103198,"ECCENTRICITY":0.01140778,"INCLINATION":1.8089,"RA_OF_ASC_NODE":42.7832,"ARG_OF_PERICENTER":289.5095,"MEAN_ANOMALY":356.0754,"EPHEMERIS_TYPE":0,"CLASSIFICATION_TYPE":"U","NORAD_CAT_ID":25000,"ELEMENT_SET_NO":999,"REV_AT_EPOCH":12479,"BSTAR":0,"MEAN_MOTION_DOT":4.5e-7,"MEAN_MOTION_DDOT":0},{"OBJECT_NAME":"TITAN 3C TRANSTAGE DEB","OBJECT_ID":"1968-081H","EPOCH":"2026-04-26T22:46:49.239264","MEAN_MOTION":1.016913,"ECCENTRICITY":0.0072662,"INCLINATION":1.9275,"RA_OF_ASC_NODE":51.9064,"ARG_OF_PERICENTER":353.0721,"MEAN_ANOMALY":290.5222,"EPHEMERIS_TYPE":0,"CLASSIFICATION_TYPE":"U","NORAD_CAT_ID":25001,"ELEMENT_SET_NO":999,"REV_AT_EPOCH":11779,"BSTAR":0,"MEAN_MOTION_DOT":-6.3e-7,"MEAN_MOTION_DDOT":0},{"OBJECT_NAME":"USA 134","OBJECT_ID":"1997-065A","EPOCH":"2026-04-26T14:09:58.560768","MEAN_MOTION":1.00276282,"ECCENTRICITY":0.0006081,"INCLINATION":12.725,"RA_OF_ASC_NODE":22.1107,"ARG_OF_PERICENTER":324.7858,"MEAN_ANOMALY":327.866,"EPHEMERIS_TYPE":0,"CLASSIFICATION_TYPE":"U","NORAD_CAT_ID":25019,"ELEMENT_SET_NO":999,"REV_AT_EPOCH":3243,"BSTAR":0,"MEAN_MOTION_DOT":-7.2e-7,"MEAN_MOTION_DDOT":0},{"OBJECT_NAME":"IABS R/B","OBJECT_ID":"1997-065C","EPOCH":"2026-04-26T09:20:38.341824","MEAN_MOTION":1.01049613,"ECCENTRICITY":0.00445357,"INCLINATION":14.1859,"RA_OF_ASC_NODE":352.528,"ARG_OF_PERICENTER":206.0181,"MEAN_ANOMALY":347.8474,"EPHEMERIS_TYPE":0,"CLASSIFICATION_TYPE":"U","NORAD_CAT_ID":25021,"ELEMENT_SET_NO":999,"REV_AT_EPOCH":10597,"BSTAR":0,"MEAN_MOTION_DOT":7.5e-7,"MEAN_MOTION_DDOT":0},{"OBJECT_NAME":"KUPON","OBJECT_ID":"1997-070A","EPOCH":"2026-04-26T03:13:33.645216","MEAN_MOTION":1.00271289,"ECCENTRICITY":0.00051067,"INCLINATION":14.5561,"RA_OF_ASC_NODE":355.0315,"ARG_OF_PERICENTER":313.5924,"MEAN_ANOMALY":46.3242,"EPHEMERIS_TYPE":0,"CLASSIFICATION_TYPE":"U","NORAD_CAT_ID":25045,"ELEMENT_SET_NO":999,"REV_AT_EPOCH":10412,"BSTAR":0,"MEAN_MOTION_DOT":-2.79e-6,"MEAN_MOTION_DDOT":0},{"OBJECT_NAME":"SL-12 R/B(2)","OBJECT_ID":"1997-070D","EPOCH":"2026-04-26T20:27:40.313088","MEAN_MOTION":0.99640889,"ECCENTRICITY":0.00139927,"INCLINATION":14.7416,"RA_OF_ASC_NODE":354.645,"ARG_OF_PERICENTER":163.0171,"MEAN_ANOMALY":14.1656,"EPHEMERIS_TYPE":0,"CLASSIFICATION_TYPE":"U","NORAD_CAT_ID":25048,"ELEMENT_SET_NO":999,"REV_AT_EPOCH":10351,"BSTAR":0,"MEAN_MOTION_DOT":-7.9e-7,"MEAN_MOTION_DDOT":0},{"OBJECT_NAME":"INDOSTAR 1","OBJECT_ID":"1997-071B","EPOCH":"2026-04-26T22:47:50.056224","MEAN_MOTION":1.00293638,"ECCENTRICITY":0.00038558,"INCLINATION":12.8985,"RA_OF_ASC_NODE":20.4221,"ARG_OF_PERICENTER":317.4412,"MEAN_ANOMALY":251.2244,"EPHEMERIS_TYPE":0,"CLASSIFICATION_TYPE":"U","NORAD_CAT_ID":25050,"ELEMENT_SET_NO":999,"REV_AT_EPOCH":10428,"BSTAR":0,"MEAN_MOTION_DOT":1.21e-6,"MEAN_MOTION_DDOT":0},{"OBJECT_NAME":"EQUATOR S","OBJECT_ID":"1997-075B","EPOCH":"2026-04-26T05:28:39.096192","MEAN_MOTION":1.07777251,"ECCENTRICITY":0.82656726,"INCLINATION":4.7598,"RA_OF_ASC_NODE":257.1265,"ARG_OF_PERICENTER":336.2199,"MEAN_ANOMALY":0.9467,"EPHEMERIS_TYPE":0,"CLASSIFICATION_TYPE":"U","NORAD_CAT_ID":25068,"ELEMENT_SET_NO":999,"REV_AT_EPOCH":11190,"BSTAR":0.0028681322,"MEAN_MOTION_DOT":-4.11e-6,"MEAN_MOTION_DDOT":0},{"OBJECT_NAME":"SL-12 R/B(2)","OBJECT_ID":"1997-076D","EPOCH":"2026-04-26T14:13:29.240256","MEAN_MOTION":1.71947476,"ECCENTRICITY":0.4367838,"INCLINATION":13.8824,"RA_OF_ASC_NODE":19.2785,"ARG_OF_PERICENTER":40.4127,"MEAN_ANOMALY":106.9965,"EPHEMERIS_TYPE":0,"CLASSIFICATION_TYPE":"U","NORAD_CAT_ID":25074,"ELEMENT_SET_NO":999,"REV_AT_EPOCH":17831,"BSTAR":0,"MEAN_MOTION_DOT":-1.67e-6,"MEAN_MOTION_DDOT":0},{"OBJECT_NAME":"GALAXY 8 (G-8)","OBJECT_ID":"1997-078A","EPOCH":"2026-04-25T23:47:12.753312","MEAN_MOTION":0.99706747,"ECCENTRICITY":0.00081718,"INCLINATION":14.0163,"RA_OF_ASC_NODE":10.2859,"ARG_OF_PERICENTER":36.2121,"MEAN_ANOMALY":145.0353,"EPHEMERIS_TYPE":0,"CLASSIFICATION_TYPE":"U","NORAD_CAT_ID":25086,"ELEMENT_SET_NO":999,"REV_AT_EPOCH":10342,"BSTAR":0,"MEAN_MOTION_DOT":-2.49e-6,"MEAN_MOTION_DDOT":0},{"OBJECT_NAME":"INTELSAT 804 (IS-804)","OBJECT_ID":"1997-083A","EPOCH":"2026-04-26T12:38:38.766048","MEAN_MOTION":1.00264545,"ECCENTRICITY":0.0009932,"INCLINATION":13.1006,"RA_OF_ASC_NODE":18.0153,"ARG_OF_PERICENTER":20.3604,"MEAN_ANOMALY":171.7729,"EPHEMERIS_TYPE":0,"CLASSIFICATION_TYPE":"U","NORAD_CAT_ID":25110,"ELEMENT_SET_NO":999,"REV_AT_EPOCH":10381,"BSTAR":0,"MEAN_MOTION_DOT":-8.9e-7,"MEAN_MOTION_DDOT":0},{"OBJECT_NAME":"HGS 1 (ASIASAT 3)","OBJECT_ID":"1997-086A","EPOCH":"2026-04-26T02:45:38.695680","MEAN_MOTION":1.0029293,"ECCENTRICITY":0.0050643,"INCLINATION":13.0859,"RA_OF_ASC_NODE":32.2545,"ARG_OF_PERICENTER":44.6028,"MEAN_ANOMALY":142.1149,"EPHEMERIS_TYPE":0,"CLASSIFICATION_TYPE":"U","NORAD_CAT_ID":25126,"ELEMENT_SET_NO":999,"REV_AT_EPOCH":10461,"BSTAR":0,"MEAN_MOTION_DOT":-2.67e-6,"MEAN_MOTION_DDOT":0},{"OBJECT_NAME":"DELTA 2 R/B(2)","OBJECT_ID":"1998-002C","EPOCH":"2026-04-25T02:54:57.142080","MEAN_MOTION":2.19861851,"ECCENTRICITY":0.69696791,"INCLINATION":23.1517,"RA_OF_ASC_NODE":119.102,"ARG_OF_PERICENTER":262.5494,"MEAN_ANOMALY":190.199,"EPHEMERIS_TYPE":0,"CLASSIFICATION_TYPE":"U","NORAD_CAT_ID":25136,"ELEMENT_SET_NO":999,"REV_AT_EPOCH":22724,"BSTAR":0,"MEAN_MOTION_DOT":-1.47e-6,"MEAN_MOTION_DDOT":0},{"OBJECT_NAME":"ATLAS 2A R/B","OBJECT_ID":"1998-005B","EPOCH":"2026-04-22T10:49:02.129376","MEAN_MOTION":2.06883437,"ECCENTRICITY":0.67826438,"INCLINATION":62.1168,"RA_OF_ASC_NODE":184.1918,"ARG_OF_PERICENTER":280.8109,"MEAN_ANOMALY":14.9883,"EPHEMERIS_TYPE":0,"CLASSIFICATION_TYPE":"U","NORAD_CAT_ID":25149,"ELEMENT_SET_NO":999,"REV_AT_EPOCH":5083,"BSTAR":0,"MEAN_MOTION_DOT":8.89e-6,"MEAN_MOTION_DDOT":0},{"OBJECT_NAME":"INMARSAT 3-F5","OBJECT_ID":"1998-006B","EPOCH":"2026-04-26T05:33:38.636352","MEAN_MOTION":1.00272006,"ECCENTRICITY":0.00049966,"INCLINATION":9.5805,"RA_OF_ASC_NODE":53.7675,"ARG_OF_PERICENTER":340.0489,"MEAN_ANOMALY":209.847,"EPHEMERIS_TYPE":0,"CLASSIFICATION_TYPE":"U","NORAD_CAT_ID":25153,"ELEMENT_SET_NO":999,"REV_AT_EPOCH":10337,"BSTAR":0,"MEAN_MOTION_DOT":-2.99e-6,"MEAN_MOTION_DDOT":0},{"OBJECT_NAME":"UFO 8 (USA 138)","OBJECT_ID":"1998-016A","EPOCH":"2026-04-26T14:17:06.392832","MEAN_MOTION":1.00277858,"ECCENTRICITY":0.00060314,"INCLINATION":11.0709,"RA_OF_ASC_NODE":23.0782,"ARG_OF_PERICENTER":277.6737,"MEAN_ANOMALY":281.1473,"EPHEMERIS_TYPE":0,"CLASSIFICATION_TYPE":"U","NORAD_CAT_ID":25258,"ELEMENT_SET_NO":999,"REV_AT_EPOCH":10334,"BSTAR":0,"MEAN_MOTION_DOT":-1.98e-6,"MEAN_MOTION_DDOT":0}]
